COMMENT,ORIGINATOR,NORAD_CAT_ID,OBJECT_NAME,OBJECT_TYPE,CLASSIFICATION_TYPE,INTLDES,EPOCH,EPOCH_MICROSECONDS,MEAN_MOTION,ECCENTRICITY,INCLINATION,RA_OF_ASC_NODE,ARG_OF_PERICENTER,MEAN_ANOMALY,EPHEMERIS_TYPE,ELEMENT_SET_NO,REV_AT_EPOCH,BSTAR,MEAN_MOTION_DOT,MEAN_MOTION_DDOT,FILE,TLE_LINE0,TLE_LINE1,TLE_LINE2,OBJECT_ID,OBJECT_NUMBER,SEMIMAJOR_AXIS,PERIOD,APOGEE,PERIGEE
"GENERATED VIA SPACETRACK.ORG API","JSPOC","21734","SL-14 R/B","ROCKET BODY","U","91068G","2016-01-08 23:17:21","640704","12.54220344","0.010681","82.5836","325.4673","251.1708","220.0871","0","999","11197","-6.0078e-05","0","0","1977913","0 SL-14 R/B","1 21734U 91068G   16008.97038936 -.00000000  00000-0 -60078-4 0  9998","2 21734  82.5836 325.4673 0106810 251.1708 220.0871 12.54220344111977","1991-068G","21734","7825.028","114.812","1530.472","1363.314"
"GENERATED VIA SPACETRACK.ORG API","JSPOC","21233","SL-14 R/B","ROCKET BODY","U","91030B","2016-01-08 23:17:21","700320","13.16327495","0.001658","82.5456","6.7336","345.786","42.7316","0","999","18719","-6.1851e-05","-1.1e-07","0","1978186","0 SL-14 R/B","1 21233U 91030B   16008.97039005 -.00000011 +00000-0 -61851-4 0  9991","2 21233 082.5456 006.7336 0016580 345.7860 042.7316 13.16327495187191","1991-030B","21233","7576.917","109.395","1211.344","1186.219"
"GENERATED VIA SPACETRACK.ORG API","JSPOC","9848","SL-8 R/B","ROCKET BODY","U","77013B","2016-01-08 23:17:30","163200","13.75503077","0.001515","82.9489","15.1907","272.3494","114.9403","0","999","95084","0.00013239","1.42e-06","0","1978186","0 SL-8 R/B","1  9848U 77013B   16008.97048800 +.00000142 +00000-0 +13239-3 0  9996","2  9848 082.9489 015.1907 0015150 272.3494 114.9403 13.75503077950843","1977-013B","9848","7358.017","104.688","991.029","968.734"
"GENERATED VIA SPACETRACK.ORG API","JSPOC","29648","MEASAT 3","PAYLOAD","U","06056A","2016-01-08 23:17:42","78624","1.00272423","3.43e-05","0.0453","137.1141","105.7276","306.0364","0","999","1223","0","-2.36e-06","0","1978186","0 MEASAT 3","1 29648U 06056A   16008.97062591 -.00000236 +00000-0 +00000-0 0  9992","2 29648 000.0453 137.1141 0000343 105.7276 306.0364 01.00272423012230","2006-056A","29648","42164.553","1436.087","35787.864","35784.971"
"GENERATED VIA SPACETRACK.ORG API","JSPOC","634","SYNCOM 2 (A 26)","PAYLOAD","U","63031A","2016-01-08 23:17:48","440256","1.00296857","0.0006135","35.698","353.1587","146.9755","34.1536","0","999","19212","0","-1.17e-06","0","1977969","0 SYNCOM 2 (A 26)","1 00634U 63031A   16008.97069954 -.00000117  00000-0  00000+0 0  9999","2 00634  35.6980 353.1587 0006135 146.9755  34.1536  1.00296857192125","1963-031A","634","42157.704","1435.737","35805.433","35753.706"
"GENERATED VIA SPACETRACK.ORG API","JSPOC","38077","LARES","PAYLOAD","U","12006A","2016-01-08 23:17:53","84256","12.54930488","0.00072","69.4913","323.8532","28.8907","331.2513","0","999","17887","0.0001","-2.2e-07","0","1977932","0 LARES","1 38077U 12006A   16008.97075329 -.00000022  00000-0  10000-3 0  9990","2 38077  69.4913 323.8532 0007200  28.8907 331.2513 12.54930488178871","2012-006A","38077","7822.076","114.747","1449.573","1438.309"
"GENERATED VIA SPACETRACK.ORG API","JSPOC","7273","SL-8 R/B","ROCKET BODY","U","74024J","2016-01-08 23:17:57","157152","12.30429852","0.0075014","74.025","345.7216","128.7255","260.2327","0","999","87379","0.0003708","3e-07","0","1978186","0 SL-8 R/B","1  7273U 74024J   16008.97080043 +.00000030 +00000-0 +37080-3 0  9996","2  7273 074.0250 345.7216 0075014 128.7255 260.2327 12.30429852873796","1974-024J","7273","7925.571","117.032","1606.889","1487.983"
"GENERATED VIA SPACETRACK.ORG API","JSPOC","7437","COSMOS 679","PAYLOAD","U","74072C","2016-01-08 23:18:07","578720","12.44374671","0.002775","74.0322","202.997","155.5167","13.765","0","999","87651","9.4939e-05","-2e-08","0","1977932","0 COSMOS 679","1 07437U 74072C   16008.97092105 -.00000002  00000-0  94939-4 0  9990","2 07437  74.0322 202.9970 0027750 155.5167  13.7650 12.44374671876519","1974-072C","7437","7866.249","115.720","1509.943","1466.285"
"GENERATED VIA SPACETRACK.ORG API","JSPOC","7437","COSMOS 679","PAYLOAD","U","74072C","2016-01-08 23:18:07","578720","12.44374671","0.002775","74.0322","202.997","155.5167","13.765","0","999","87627","9.4939e-05","-2e-08","0","1978186","0 COSMOS 679","1  7437U 74072C   16008.97092105 -.00000002 +00000-0 +94939-4 0  9990","2  7437 074.0322 202.9970 0027750 155.5167 013.7650 12.44374671876272","1974-072C","7437","7866.249","115.720","1509.943","1466.285"
"GENERATED VIA SPACETRACK.ORG API","JSPOC","29252","GENESIS 1","PAYLOAD","U","06029A","2016-01-08 23:18:07","354080","15.15376236","0.0044291","64.5039","199.4045","243.8122","273.3575","0","999","52211","9.8757e-05","1.709e-05","0","1978186","0 GENESIS 1","1 29252U 06029A   16008.97091845 +.00001709 +00000-0 +98757-4 0  9992","2 29252 064.5039 199.4045 0044291 243.8122 273.3575 15.15376236522115","2006-029A","29252","6897.973","95.025","550.390","489.286"
"GENERATED VIA SPACETRACK.ORG API","JSPOC","29398","CHINASAT 22A","PAYLOAD","U","06038A","2016-01-08 23:18:09","107136","1.00271786","0.0006031","4.8679","61.2014","205.6177","292.1855","0","999","3418","0","-3.13e-06","0","1978186","0 CHINASAT 22A","1 29398U 06038A   16008.97093874 -.00000313 +00000-0 +00000-0 0  9998","2 29398 004.8679 061.2014 0006031 205.6177 292.1855 01.00271786034189","2006-038A","29398","42164.731","1436.096","35812.026","35761.167"
"GENERATED VIA SPACETRACK.ORG API","JSPOC","13899","SL-12 R/B(2)","ROCKET BODY","U","82020F","2016-01-08 23:18:15","520608","0.9863427","0.002515","15.2651","339.3414","110.0423","65.1476","0","999","8341","0","2.4e-07","0","1977914","0 SL-12 R/B(2)","1 13899U 82020F   16008.97101297  .00000024  00000-0  00000+0 0  9998","2 13899  15.2651 339.3414 0025150 110.0423  65.1476  0.98634270 83417","1982-020F","13899","42630.126","1459.938","36359.205","36144.776"
"GENERATED VIA SPACETRACK.ORG API","JSPOC","5709","INTELSAT 4-F3","PAYLOAD","U","71116A","2016-01-08 23:18:15","520608","0.99617291","0.0009585","13.9872","332.536","353.6246","186.0049","0","999","8092","0","1.09e-06","0","1977971","0 INTELSAT 4-F3","1 05709U 71116A   16008.97101297  .00000109  00000-0  00000+0 0  9997","2 05709  13.9872 332.5360 0009585 353.6246 186.0049  0.99617291 80922","1971-116A","5709","42349.214","1445.532","36011.670","35930.487"
"GENERATED VIA SPACETRACK.ORG API","JSPOC","12322","COSMOS 1252","PAYLOAD","U","81022C","2016-01-08 23:18:18","855648","12.54754884","0.0035316","74.0269","205.762","250.107","264.6509","0","999","59595","8.0107e-05","-3e-08","0","1978186","0 COSMOS 1252","1 12322U 81022C   16008.97105157 -.00000003 +00000-0 +80107-4 0  9997","2 12322 074.0269 205.7620 0035316 250.1070 264.6509 12.54754884595958","1981-022C","12322","7822.806","114.763","1472.298","1417.044"
"GENERATED VIA SPACETRACK.ORG API","JSPOC","10025","ATLAS CENTAUR R/B","ROCKET BODY","U","77041B","2016-01-08 23:18:36","636768","2.22693241","0.7205938","21.1464","147.2613","285.6924","56.7896","0","999","31300","-0.00012559","1.7e-07","0","1978186","0 ATLAS CENTAUR R/B","1 10025U 77041B   16008.97125737 +.00000017 +00000-0 -12559-3 0  9997","2 10025 021.1464 147.2613 7205938 285.6924 056.7896 02.22693241313001","1977-041B","10025","24770.255","646.629","36241.412","542.827"
"GENERATED VIA SPACETRACK.ORG API","JSPOC","18339","COSMOS 1880","PAYLOAD","U","87074F","2016-01-08 23:18:36","629856","12.6544947","0.0009641","82.5594","195.1085","213.2365","302.0164","0","999","30876","8.7564e-05","2.7e-07","0","1978186","0 COSMOS 1880","1 18339U 87074F   16008.97125729 +.00000027 +00000-0 +87564-4 0  9990","2 18339 082.5594 195.1085 0009641 213.2365 302.0164 12.65449470308762","1987-074F","18339","7778.669","113.793","1408.033","1393.034"
"GENERATED VIA SPACETRACK.ORG API","JSPOC","5549","COSMOS 446","PAYLOAD","U","71086C","2016-01-08 23:18:43","629120","12.54404184","0.0082944","74.0257","186.7162","116.3777","39.9492","0","999","2592","1.9899e-05","-1.2e-07","0","1977969","0 COSMOS 446","1 05549U 71086C   16008.97133830 -.00000012  00000-0  19899-4 0  9998","2 05549  74.0257 186.7162 0082944 116.3777  39.9492 12.54404184 25927","1971-086C","5549","7824.264","114.795","1511.026","1381.231"
"GENERATED VIA SPACETRACK.ORG API","JSPOC","5549","COSMOS 446","PAYLOAD","U","71086C","2016-01-08 23:18:43","629120","12.54404184","0.0082944","74.0257","186.7162","116.3777","39.9492","0","999","2571","1.9899e-05","-1.2e-07","0","1978186","0 COSMOS 446","1  5549U 71086C   16008.97133830 -.00000012 +00000-0 +19899-4 0  9998","2  5549 074.0257 186.7162 0082944 116.3777 039.9492 12.54404184025714","1971-086C","5549","7824.264","114.795","1511.026","1381.231"
"GENERATED VIA SPACETRACK.ORG API","JSPOC","13757","COSMOS 1428","PAYLOAD","U","83001A","2016-01-08 23:18:50","472000","13.76798519","0.0036122","82.9113","7.0395","103.7291","285.8492","0","999","65710","2.3219e-05","3.9e-07","0","1978186","0 COSMOS 1428","1 13757U 83001A   16008.97141750 +.00000039 +00000-0 +23219-4 0  9997","2 13757 082.9113 007.0395 0036122 103.7291 285.8492 13.76798519657103","1983-001A","13757","7353.400","104.590","1001.827","948.704"
"GENERATED VIA SPACETRACK.ORG API","JSPOC","22830","ARIANE 40 R/B","ROCKET BODY","U","93061H","2016-01-08 23:18:50","422752","14.31392078","0.0011359","98.8794","6.2628","26.2605","359.5494","0","999","16285","1.7601e-05","0","0","1978186","0 ARIANE 40 R/B","1 22830U 93061H   16008.97141693 +.00000000 +00000-0 +17601-4 0  9998","2 22830 098.8794 006.2628 0011359 026.2605 359.5494 14.31392078162855","1993-061H","22830","7165.218","100.601","795.222","778.944"
